<?xml version="1.0" encoding="UTF-8"?>
<gpx version="1.1" creator="VirtualCog" xmlns="http://www.topografix.com/GPX/1/1">
  <trk>
    <name>Demo Hills 10k</name>
    <trkseg>
      <trkpt lat="37.7749" lon="-122.4194"><ele>100</ele></trkpt>
      <trkpt lat="37.7754" lon="-122.4194"><ele>101</ele></trkpt>
      <trkpt lat="37.7759" lon="-122.4194"><ele>102</ele></trkpt>
      <trkpt lat="37.7764" lon="-122.4194"><ele>103</ele></trkpt>
      <trkpt lat="37.7769" lon="-122.4194"><ele>104</ele></trkpt>
      <trkpt lat="37.7774" lon="-122.4194"><ele>110</ele></trkpt>
      <trkpt lat="37.7779" lon="-122.4194"><ele>120</ele></trkpt>
      <trkpt lat="37.7784" lon="-122.4194"><ele>135</ele></trkpt>
      <trkpt lat="37.7789" lon="-122.4194"><ele>150</ele></trkpt>
      <trkpt lat="37.7794" lon="-122.4194"><ele>160</ele></trkpt>
      <trkpt lat="37.7799" lon="-122.4194"><ele>155</ele></trkpt>
      <trkpt lat="37.7804" lon="-122.4194"><ele>145</ele></trkpt>
      <trkpt lat="37.7809" lon="-122.4194"><ele>140</ele></trkpt>
      <trkpt lat="37.7814" lon="-122.4194"><ele>142</ele></trkpt>
      <trkpt lat="37.7819" lon="-122.4194"><ele>148</ele></trkpt>
      <trkpt lat="37.7824" lon="-122.4194"><ele>165</ele></trkpt>
      <trkpt lat="37.7829" lon="-122.4194"><ele>185</ele></trkpt>
      <trkpt lat="37.7834" lon="-122.4194"><ele>200</ele></trkpt>
      <trkpt lat="37.7839" lon="-122.4194"><ele>210</ele></trkpt>
      <trkpt lat="37.7844" lon="-122.4194"><ele>205</ele></trkpt>
      <trkpt lat="37.7849" lon="-122.4194"><ele>195</ele></trkpt>
    </trkseg>
  </trk>
</gpx>
